KAITUO 1B               
1 40912U 15049P   17256.76225928  .00003247  00000-0  16318-3 0  9995
2 40912  97.4522 263.1573 0013898 252.6437 193.9623 15.17900202109721
TIANWANG 1C (TW-1C)     
1 40926U 15051B   17256.83313884  .00010615  00000-0  23371-3 0  9994
2 40926  97.2215 295.7378 0010488 197.8810 248.3980 15.44075219110593
TIANWANG 1B (TW-1B)     
1 40927U 15051C   17256.90944535  .00011769  00000-0  26887-3 0  9992
2 40927  97.2311 295.7916 0009876 209.9872 274.8002 15.42954273110549
TIANWANG 1A (TW-1A)     
1 40928U 15051D   17256.47272373  .00006982  00000-0  19629-3 0  9996
2 40928  97.2194 290.6983 0010949 234.7245 231.7094 15.36759438110250
LAPAN-A2 (IO-86)        
1 40931U 15052B   17255.85243601  .00000711  00000-0  99345-5 0  9993
2 40931   6.0007 327.6744 0013493  42.5612 317.4974 14.76540803105947
LQSAT                   
1 40958U 15057A   17256.55810079  .00000186  00000-0  36638-4 0  9995
2 40958  97.9721 330.3073 0019051 139.5088 220.7545 14.72985348104137
CHUBUSAT-2              
1 41338U 16012B   17256.40452891  .00000786  00000-0  55112-4 0  9992
2 41338  31.0030 271.9675 0013957 212.8077 147.1692 14.99800700 86245
CHUBUSAT-3              
1 41339U 16012C   17256.45386269  .00000880  00000-0  62189-4 0  9990
2 41339  31.0110 270.6586 0013409 221.1608 138.8007 15.00002676 86232
OUFTI-1                 
1 41458U 16025C   17256.57058829  .00002706  00000-0  14750-3 0  9996
2 41458  98.1783 299.1962 0172196 354.9764   4.9722 15.03570002 75865
E-ST@R-II               
1 41459U 16025D   17256.60144102  .00002697  00000-0  14721-3 0  9998
2 41459  98.1762 299.1585 0173346 354.8836   5.0605 15.03374939 75853
AAUSAT 4                
1 41460U 16025E   17256.87627399  .00004325  00000-0  23244-3 0  9993
2 41460  98.1691 299.6079 0165848 351.9219   7.9275 15.04402968 75927
NUSAT 1 (LO-87)         
1 41557U 16033B   17256.79697021  .00003255  00000-0  12394-3 0  9994
2 41557  97.4582 336.3059 0015499  58.7426 301.5329 15.27364391 71954
BEESAT-4                
1 41619U 16040W   17256.42014898  .00003816  00000-0  17441-3 0  9997
2 41619  97.4540 317.9308 0013517 117.0485 243.2132 15.21085952 56002
PRATHAM                 
1 41783U 16059A   17256.73954706  .00000127  00000-0  34168-4 0  9992
2 41783  98.1585 317.1580 0032483 242.0584 117.7328 14.62858274 51542
ALSAT 1N                
1 41789U 16059G   17256.72309709  .00000263  00000-0  59098-4 0  9994
2 41789  98.1586 317.8139 0027104 235.4496 124.4141 14.64075349 51564
NAYIF-1 (EO-88)         
1 42017U 17008BX  17256.59954484  .00003411  00000-0  14666-3 0  9994
2 42017  97.4868 317.8605 0004914 270.7991  89.2683 15.23330220 31945
LILACSAT-1              
1 42725U 98067ME  17256.78221956  .00023035  00000-0  31353-3 0  9992
2 42725  51.6398 315.3056 0006120 291.4148  68.6191 15.57434905 17276
MAX VALIER SAT          
1 42778U 17036P   17256.60372370  .00002421  00000-0  11362-3 0  9999
2 42778  97.4435 315.3730 0011728 323.9870  36.0574 15.20557253 12468
